STARLINK-6055           
1 56467U 23064V   26049.71252340 -.00000830  00000+0 -61747-4 0  9999
2 56467  70.0003 172.4285 0003482 272.1234  87.9527 14.98336488152894
STARLINK-5998           
1 56468U 23064W   26049.81705457  .00000035  00000+0  10758-4 0  9994
2 56468  70.0003 191.8558 0002438 275.4444  84.6437 14.98328039152428
STARLINK-5518           
1 56469U 23064X   26049.72505156  .00000076  00000+0  14132-4 0  9994
2 56469  70.0007 172.4724 0003076 268.1323  91.9484 14.98327000152898
STARLINK-5523           
1 56470U 23064Y   26049.71670168  .00001487  00000+0  13235-3 0  9990
2 56470  70.0006 172.4425 0003237 262.8860  97.1931 14.98343692152893
STARLINK-5521           
1 56471U 23064Z   26049.70835175  .00001804  00000+0  15897-3 0  9990
2 56471  70.0002 172.4138 0003132 271.8855  88.1946 14.98327381152892
STARLINK-5038           
1 56472U 23064AA  26049.76676493  .00001298  00000+0  11659-3 0  9992
2 56472  70.0007 172.2178 0003173 268.8086  91.2710 14.98330876152906
STARLINK-5524           
1 56474U 23064AC  26049.72087471  .00000116  00000+0  17491-4 0  9991
2 56474  70.0014 172.4582 0003101 262.4182  97.6625 14.98330253152897
STARLINK-5541           
1 56475U 23064AD  26049.76259196  .00000228  00000+0  26915-4 0  9996
2 56475  70.0006 172.1991 0002907 273.2550  86.8277 14.98329923152909
STARLINK-5545           
1 56476U 23064AE  26049.77093992 -.00000103  00000+0 -83432-6 0  9991
2 56476  70.0010 172.2312 0003048 274.8679  85.2132 14.98330412152907
STARLINK-5534           
1 56477U 23064AF  26049.27863495 -.00001032  00000+0 -78548-4 0  9992
2 56477  70.0011 173.3227 0008313 294.4239  65.6053 14.98347543152835
STARLINK-6041           
1 56478U 23064AG  26049.75840966  .00001196  00000+0  10798-3 0  9995
2 56478  70.0010 172.1864 0002847 267.2648  92.8185 14.98335369152906
STARLINK-6044           
1 56479U 23064AH  26049.73337057 -.00000773  00000+0 -56968-4 0  9998
2 56479  70.0011 172.0980 0003143 265.5749  94.5051 14.98333440152908
STARLINK-6214           
1 56480U 23064AJ  26049.66504211  .00012071  00000+0  53947-3 0  9995
2 56480  69.9936 142.3573 0003509 266.1698  93.9072 15.21492430153647
STARLINK-6222           
1 56481U 23064AK  26049.74172074 -.00002150  00000+0 -17251-3 0  9990
2 56481  70.0019 172.1286 0002866 257.5135 102.5704 14.98326477152907
STARLINK-6220           
1 56482U 23064AL  26049.75424038  .00001776  00000+0  15656-3 0  9990
2 56482  70.0005 172.1716 0003271 272.3562  87.7223 14.98330631152908
STARLINK-5868           
1 56483U 23064AM  26049.75006781  .00000351  00000+0  37212-4 0  9993
2 56483  70.0007 172.1534 0003009 269.3364  90.7450 14.98330765152908
STARLINK-6221           
1 56484U 23064AN  26048.01058709 -.00052719  00000+0 -44937-2 0  9996
2 56484  70.0008 176.5195 0001578 228.7598 131.3426 14.97901587152638
