[{"OBJECT_NAME":"STARLINK-6055","OBJECT_ID":"2023-064V","EPOCH":"2026-02-18T17:06:02.021760","MEAN_MOTION":14.98336488,"ECCENTRICITY":0.0003482,"INCLINATION":70.0003,"RA_OF_ASC_NODE":172.4285,"ARG_OF_PERICENTER":272.1234,"MEAN_ANOMALY":87.9527,"EPHEMERIS_TYPE":0,"CLASSIFICATION_TYPE":"U","NORAD_CAT_ID":56467,"ELEMENT_SET_NO":999,"REV_AT_EPOCH":15289,"BSTAR":-6.1747e-5,"MEAN_MOTION_DOT":-8.3e-6,"MEAN_MOTION_DDOT":0},{"OBJECT_NAME":"STARLINK-5998","OBJECT_ID":"2023-064W","EPOCH":"2026-02-18T19:36:33.514848","MEAN_MOTION":14.98328039,"ECCENTRICITY":0.0002438,"INCLINATION":70.0003,"RA_OF_ASC_NODE":191.8558,"ARG_OF_PERICENTER":275.4444,"MEAN_ANOMALY":84.6437,"EPHEMERIS_TYPE":0,"CLASSIFICATION_TYPE":"U","NORAD_CAT_ID":56468,"ELEMENT_SET_NO":999,"REV_AT_EPOCH":15242,"BSTAR":1.0758e-5,"MEAN_MOTION_DOT":3.5e-7,"MEAN_MOTION_DDOT":0},{"OBJECT_NAME":"STARLINK-5518","OBJECT_ID":"2023-064X","EPOCH":"2026-02-18T17:24:04.454784","MEAN_MOTION":14.98327,"ECCENTRICITY":0.0003076,"INCLINATION":70.0007,"RA_OF_ASC_NODE":172.4724,"ARG_OF_PERICENTER":268.1323,"MEAN_ANOMALY":91.9484,"EPHEMERIS_TYPE":0,"CLASSIFICATION_TYPE":"U","NORAD_CAT_ID":56469,"ELEMENT_SET_NO":999,"REV_AT_EPOCH":15289,"BSTAR":1.4132e-5,"MEAN_MOTION_DOT":7.6e-7,"MEAN_MOTION_DDOT":0},{"OBJECT_NAME":"STARLINK-5523","OBJECT_ID":"2023-064Y","EPOCH":"2026-02-18T17:12:03.025152","MEAN_MOTION":14.98343692,"ECCENTRICITY":0.0003237,"INCLINATION":70.0006,"RA_OF_ASC_NODE":172.4425,"ARG_OF_PERICENTER":262.886,"MEAN_ANOMALY":97.1931,"EPHEMERIS_TYPE":0,"CLASSIFICATION_TYPE":"U","NORAD_CAT_ID":56470,"ELEMENT_SET_NO":999,"REV_AT_EPOCH":15289,"BSTAR":0.00013235,"MEAN_MOTION_DOT":1.487e-5,"MEAN_MOTION_DDOT":0},{"OBJECT_NAME":"STARLINK-5521","OBJECT_ID":"2023-064Z","EPOCH":"2026-02-18T17:00:01.591200","MEAN_MOTION":14.98327381,"ECCENTRICITY":0.0003132,"INCLINATION":70.0002,"RA_OF_ASC_NODE":172.4138,"ARG_OF_PERICENTER":271.8855,"MEAN_ANOMALY":88.1946,"EPHEMERIS_TYPE":0,"CLASSIFICATION_TYPE":"U","NORAD_CAT_ID":56471,"ELEMENT_SET_NO":999,"REV_AT_EPOCH":15289,"BSTAR":0.00015897,"MEAN_MOTION_DOT":1.804e-5,"MEAN_MOTION_DDOT":0},{"OBJECT_NAME":"STARLINK-5038","OBJECT_ID":"2023-064AA","EPOCH":"2026-02-18T18:24:08.489952","MEAN_MOTION":14.98330876,"ECCENTRICITY":0.0003173,"INCLINATION":70.0007,"RA_OF_ASC_NODE":172.2178,"ARG_OF_PERICENTER":268.8086,"MEAN_ANOMALY":91.271,"EPHEMERIS_TYPE":0,"CLASSIFICATION_TYPE":"U","NORAD_CAT_ID":56472,"ELEMENT_SET_NO":999,"REV_AT_EPOCH":15290,"BSTAR":0.00011659,"MEAN_MOTION_DOT":1.298e-5,"MEAN_MOTION_DDOT":0},{"OBJECT_NAME":"STARLINK-5524","OBJECT_ID":"2023-064AC","EPOCH":"2026-02-18T17:18:03.574944","MEAN_MOTION":14.98330253,"ECCENTRICITY":0.0003101,"INCLINATION":70.0014,"RA_OF_ASC_NODE":172.4582,"ARG_OF_PERICENTER":262.4182,"MEAN_ANOMALY":97.6625,"EPHEMERIS_TYPE":0,"CLASSIFICATION_TYPE":"U","NORAD_CAT_ID":56474,"ELEMENT_SET_NO":999,"REV_AT_EPOCH":15289,"BSTAR":1.7491e-5,"MEAN_MOTION_DOT":1.16e-6,"MEAN_MOTION_DDOT":0},{"OBJECT_NAME":"STARLINK-5541","OBJECT_ID":"2023-064AD","EPOCH":"2026-02-18T18:18:07.945344","MEAN_MOTION":14.98329923,"ECCENTRICITY":0.0002907,"INCLINATION":70.0006,"RA_OF_ASC_NODE":172.1991,"ARG_OF_PERICENTER":273.255,"MEAN_ANOMALY":86.8277,"EPHEMERIS_TYPE":0,"CLASSIFICATION_TYPE":"U","NORAD_CAT_ID":56475,"ELEMENT_SET_NO":999,"REV_AT_EPOCH":15290,"BSTAR":2.6915e-5,"MEAN_MOTION_DOT":2.28e-6,"MEAN_MOTION_DDOT":0},{"OBJECT_NAME":"STARLINK-5545","OBJECT_ID":"2023-064AE","EPOCH":"2026-02-18T18:30:09.209088","MEAN_MOTION":14.98330412,"ECCENTRICITY":0.0003048,"INCLINATION":70.001,"RA_OF_ASC_NODE":172.2312,"ARG_OF_PERICENTER":274.8679,"MEAN_ANOMALY":85.2132,"EPHEMERIS_TYPE":0,"CLASSIFICATION_TYPE":"U","NORAD_CAT_ID":56476,"ELEMENT_SET_NO":999,"REV_AT_EPOCH":15290,"BSTAR":-8.3432e-7,"MEAN_MOTION_DOT":-1.03e-6,"MEAN_MOTION_DDOT":0},{"OBJECT_NAME":"STARLINK-5534","OBJECT_ID":"2023-064AF","EPOCH":"2026-02-18T06:41:14.059680","MEAN_MOTION":14.98347543,"ECCENTRICITY":0.0008313,"INCLINATION":70.0011,"RA_OF_ASC_NODE":173.3227,"ARG_OF_PERICENTER":294.4239,"MEAN_ANOMALY":65.6053,"EPHEMERIS_TYPE":0,"CLASSIFICATION_TYPE":"U","NORAD_CAT_ID":56477,"ELEMENT_SET_NO":999,"REV_AT_EPOCH":15283,"BSTAR":-7.8548e-5,"MEAN_MOTION_DOT":-1.032e-5,"MEAN_MOTION_DDOT":0},{"OBJECT_NAME":"STARLINK-6041","OBJECT_ID":"2023-064AG","EPOCH":"2026-02-18T18:12:06.594624","MEAN_MOTION":14.98335369,"ECCENTRICITY":0.0002847,"INCLINATION":70.001,"RA_OF_ASC_NODE":172.1864,"ARG_OF_PERICENTER":267.2648,"MEAN_ANOMALY":92.8185,"EPHEMERIS_TYPE":0,"CLASSIFICATION_TYPE":"U","NORAD_CAT_ID":56478,"ELEMENT_SET_NO":999,"REV_AT_EPOCH":15290,"BSTAR":0.00010798,"MEAN_MOTION_DOT":1.196e-5,"MEAN_MOTION_DDOT":0},{"OBJECT_NAME":"STARLINK-6044","OBJECT_ID":"2023-064AH","EPOCH":"2026-02-18T17:36:03.217248","MEAN_MOTION":14.9833344,"ECCENTRICITY":0.0003143,"INCLINATION":70.0011,"RA_OF_ASC_NODE":172.098,"ARG_OF_PERICENTER":265.5749,"MEAN_ANOMALY":94.5051,"EPHEMERIS_TYPE":0,"CLASSIFICATION_TYPE":"U","NORAD_CAT_ID":56479,"ELEMENT_SET_NO":999,"REV_AT_EPOCH":15290,"BSTAR":-5.6968e-5,"MEAN_MOTION_DOT":-7.73e-6,"MEAN_MOTION_DDOT":0},{"OBJECT_NAME":"STARLINK-6214","OBJECT_ID":"2023-064AJ","EPOCH":"2026-02-18T15:57:39.638304","MEAN_MOTION":15.2149243,"ECCENTRICITY":0.0003509,"INCLINATION":69.9936,"RA_OF_ASC_NODE":142.3573,"ARG_OF_PERICENTER":266.1698,"MEAN_ANOMALY":93.9072,"EPHEMERIS_TYPE":0,"CLASSIFICATION_TYPE":"U","NORAD_CAT_ID":56480,"ELEMENT_SET_NO":999,"REV_AT_EPOCH":15364,"BSTAR":0.00053947,"MEAN_MOTION_DOT":0.00012071,"MEAN_MOTION_DDOT":0},{"OBJECT_NAME":"STARLINK-6222","OBJECT_ID":"2023-064AK","EPOCH":"2026-02-18T17:48:04.671936","MEAN_MOTION":14.98326477,"ECCENTRICITY":0.0002866,"INCLINATION":70.0019,"RA_OF_ASC_NODE":172.1286,"ARG_OF_PERICENTER":257.5135,"MEAN_ANOMALY":102.5704,"EPHEMERIS_TYPE":0,"CLASSIFICATION_TYPE":"U","NORAD_CAT_ID":56481,"ELEMENT_SET_NO":999,"REV_AT_EPOCH":15290,"BSTAR":-0.00017251,"MEAN_MOTION_DOT":-2.15e-5,"MEAN_MOTION_DDOT":0},{"OBJECT_NAME":"STARLINK-6220","OBJECT_ID":"2023-064AL","EPOCH":"2026-02-18T18:06:06.368832","MEAN_MOTION":14.98330631,"ECCENTRICITY":0.0003271,"INCLINATION":70.0005,"RA_OF_ASC_NODE":172.1716,"ARG_OF_PERICENTER":272.3562,"MEAN_ANOMALY":87.7223,"EPHEMERIS_TYPE":0,"CLASSIFICATION_TYPE":"U","NORAD_CAT_ID":56482,"ELEMENT_SET_NO":999,"REV_AT_EPOCH":15290,"BSTAR":0.00015656,"MEAN_MOTION_DOT":1.776e-5,"MEAN_MOTION_DDOT":0},{"OBJECT_NAME":"STARLINK-5868","OBJECT_ID":"2023-064AM","EPOCH":"2026-02-18T18:00:05.858784","MEAN_MOTION":14.98330765,"ECCENTRICITY":0.0003009,"INCLINATION":70.0007,"RA_OF_ASC_NODE":172.1534,"ARG_OF_PERICENTER":269.3364,"MEAN_ANOMALY":90.745,"EPHEMERIS_TYPE":0,"CLASSIFICATION_TYPE":"U","NORAD_CAT_ID":56483,"ELEMENT_SET_NO":999,"REV_AT_EPOCH":15290,"BSTAR":3.7212e-5,"MEAN_MOTION_DOT":3.51e-6,"MEAN_MOTION_DDOT":0},{"OBJECT_NAME":"STARLINK-6221","OBJECT_ID":"2023-064AN","EPOCH":"2026-02-17T00:15:14.724576","MEAN_MOTION":14.97901587,"ECCENTRICITY":0.00015783,"INCLINATION":70.0008,"RA_OF_ASC_NODE":176.5195,"ARG_OF_PERICENTER":228.7598,"MEAN_ANOMALY":131.3426,"EPHEMERIS_TYPE":0,"CLASSIFICATION_TYPE":"U","NORAD_CAT_ID":56484,"ELEMENT_SET_NO":999,"REV_AT_EPOCH":15263,"BSTAR":-0.0044936845,"MEAN_MOTION_DOT":-0.00052719,"MEAN_MOTION_DDOT":0}]
